{"fetched_at":"2026-03-29T02:12:04Z","count":15717,"tles":[{"name":"SHIYAN-25 (SY-25)","line1":"1 57047U 23087A   26085.28094626 -.00056187  31619-5 -10241-3 0  9996","line2":"2 57047  96.7429 146.5268 0015720 233.9058 126.0767 16.00941032161541","category":"Other"}]}